#aV2022  8  4  0  0  0.00000000     288 DD+AD WGS84 FIT  NGA
## 2221 345600.00000000   300.00000000 59795 0.0000000000000
+   32     1  2  3  4  5  6  7  8  9 10 11 12 13 14 15 16 17
+         18 19 20 21 22 23 24 25 26 27 28 29 30 31 32  0  0
+          0  0  0  0  0  0  0  0  0  0  0  0  0  0  0  0  0
+          0  0  0  0  0  0  0  0  0  0  0  0  0  0  0  0  0
+          0  0  0  0  0  0  0  0  0  0  0  0  0  0  0  0  0
++         2  2  2  2  2  2  2  2  2  2  2  2  2  2  2  2  2
++         2  2  2  2  2  2  2  2  2  2  2  2  2  2  2  0  0
++         0  0  0  0  0  0  0  0  0  0  0  0  0  0  0  0  0
++         0  0  0  0  0  0  0  0  0  0  0  0  0  0  0  0  0
++         0  0  0  0  0  0  0  0  0  0  0  0  0  0  0  0  0
%c cc cc ccc ccc cccc cccc cccc cccc ccccc ccccc ccccc ccccc
%c cc cc ccc ccc cccc cccc cccc cccc ccccc ccccc ccccc ccccc
%f  0.0000000  0.000000000  0.00000000000  0.000000000000000
%f  0.0000000  0.000000000  0.00000000000  0.000000000000000
%i    0    0    0    0      0      0      0      0         0
%i    0    0    0    0      0      0      0      0         0
/*      NGA, ST. LOUIS,MO.                                  
/*   EPHEMERIS COMPUTED FROM 2 DAYS OF DATA                 
/*   EPOCHA v8 SMOOTHER                                     
/*   G2139 IERS2010 SATIGS SATAPC                           
*  2022  8  4 23 45  0.00000000
P  1 -14220.432642   2735.624374  21959.470415    308.097336                    
V  1  -6475.630357 -27812.917402   -390.045990     -0.071344                    
P  2  15659.626045  14742.177499 -14863.132759   -649.918657                    
V  2   4160.828297  19730.264965  23143.336338      0.009216                    
P  3 -21676.860251   9993.349846  11405.599230   -324.442900                    
V  3   9146.210904 -11691.463401  27442.845739     -0.087576                    
P  4 -24291.459587    -61.522890 -10846.587319   -137.251843                    
V  4 -12316.111380  -6543.612739  27513.894396      0.049264                    
P  5  17477.811761   2061.740566 -20109.646379    -91.695008                    
V  5 -16687.193346  18783.029136 -12551.064026     -0.014090                    
P  6   6160.953963  25794.607040    -52.075961    412.807406                    
V  6  -1945.692962    604.653968  32383.000636      0.147021                    
P  7  -7651.729724  18747.275212 -16508.734174    316.285641                    
V  7  -7456.025977 -20820.393522 -20182.642319     -0.019079                    
P  8 -26125.342412  -5046.412851   2730.202659    -79.118551                    
V  8  -2729.576440  -3255.599585 -31324.466440     -0.016119                    
P  9 -16559.749981   9215.594164 -18696.540266   -311.749842                    
V  9 -22383.109591  -7616.102263  16095.996687      0.041433                    
P 10   7222.801357 -20811.663810  14761.842018   -516.634177                    
V 10  14736.966411 -11477.354294 -23920.153822     -0.134352                    
P 11  12249.245744  20340.663247 -11935.138857    -10.572033                    
V 11    549.600553  15295.097099  26610.152714     -0.005285                    
P 12  22039.575878  -6796.669645  12815.797184   -257.255490                    
V 12 -11463.729637  12387.284520  25854.853738     -0.059443                    
P 13  22508.726258  13559.283319  -4651.703015    361.775146                    
V 13  -6126.791916   -189.849632 -31097.299779      0.072279                    
P 14  -9374.436427  20951.244557  13279.292523   -110.365384                    
V 14 -14333.939624   9329.839776 -24950.604461      0.011800                    
P 15  26483.599191   2498.751637   2152.257220    -39.871307                    
V 15   2649.253959   3956.773127 -30729.309884      0.030613                    
P 16 -13189.215292  -8595.955036 -21721.339608   -518.988365                    
V 16  20853.997284 -16913.636890  -5598.205288     -0.018168                    
P 17   -804.090315  15462.752997  22007.153647    644.849088                    
V 17 -25393.149369  -8790.527421   5408.596704      0.042645                    
P 18   7416.975890 -19194.568325 -16732.465897     91.978110                    
V 18   6256.744148  20376.366820 -20736.679932     -0.118902                    
P 19   9678.019481  17006.586047  17822.605514    192.918503                    
V 19 -21749.223116  -7598.605814  18565.583400      0.050378                    
P 20   8782.135215  13645.499049 -21054.020986    497.462816                    
V 20 -16648.889293  20972.369730   6418.559984     -0.031425                    
P 21 -17059.293025  -7107.109426  19947.873336    160.734066                    
V 21  -6793.177827 -22789.967766 -13680.548020     -0.002545                    
P 22 -12039.433595 -17188.814131  16803.159420    304.266222                    
V 22  19673.577112   5889.718997  20467.606481      0.065825                    
P 23  15497.516017 -20825.968713   5304.947747    -35.741349                    
V 23   6581.403448  -3006.175870 -31072.392156     -0.013977                    
P 24  16444.091230   1233.029874  20579.549355    177.849136                    
V 24   7771.142050  25728.535883  -7222.829218     -0.109684                    
P 25  19781.189062 -17370.222847   1841.204033    357.184060                    
V 25    301.395980   4193.378815  31708.534250      0.043476                    
P 26  -5414.225764 -16170.982363 -20379.794962    222.013771                    
V 26  18539.989176 -18053.540701   9754.181793      0.020150                    
P 27 -21571.045205 -12926.369872  -9354.242828    220.406955                    
V 27  11510.159339   1382.196478 -28745.825897     -0.009764                    
P 28  -1345.122492  18386.126926  19714.520101    339.322718                    
V 28 -19296.799746  14049.002261 -14575.215528      0.018576                    
P 29  17160.122098  -7174.832788 -19041.258107   -539.953810                    
V 29  22082.328900   9446.212889  16305.831108     -0.034254                    
P 30   -516.527254  25081.902958  -8232.892590   -535.351946                    
V 30  -5845.325726  -9632.824368 -28912.992207     -0.006420                    
P 31  -7581.705198 -25040.160831  -2895.601371   -188.439965                    
V 31   2540.512736  -4206.155487  31632.436428     -0.014180                    
P 32  -3148.500761 -16209.211422  20988.737362   -194.959108                    
V 32  25466.807718   6517.990365   8729.283214     -0.104243                    
EOF
